
STARLINK-30984          
1 58480U 23186H   25001.42942999 -.00000392  00000+0 -13966-4 0  9995
2 58480  42.9996 255.7761 0000804 274.5606  85.5144 15.02547241 60836
STARLINK-30956          
1 58481U 23186J   25001.64524575 -.00003535  00000+0 -24685-3 0  9997
2 58481  42.9979 230.3950 0001415 250.7244 109.3446 15.02519524 61148
STARLINK-30997          
1 58482U 23186K   25001.71195886  .00004661  00000+0  35966-3 0  9998
2 58482  43.0014 254.4267 0001159 279.8205  80.2506 15.02560646 60877
STARLINK-30994          
1 58483U 23186L   25002.16675163  .00001233  00000+0  56973-4 0  9994
2 58483  43.0025 174.1335 0001530 273.4756  86.5920 15.25915336 61750
STARLINK-30991          
1 58484U 23186M   25001.75849047  .00001694  00000+0  14045-3 0  9997
2 58484  42.9967 253.9391 0001901 249.9856 110.0781 15.02529788 60870
STARLINK-30979          
1 58485U 23186N   25001.93473036  .00000708  00000+0  67504-4 0  9993
2 58485  43.0015 253.5494 0001533 300.8842  59.1849 15.02535094 60853
STARLINK-31005          
1 58486U 23186P   25001.73196724  .00002457  00000+0  19692-3 0  9995
2 58486  43.0021 254.6037 0001425 278.9053  81.1628 15.02527317 60865
STARLINK-30987          
1 58487U 23186Q   24366.93090858  .00001332  00000+0  11363-3 0  9990
2 58487  43.0036 258.9170 0001169 278.4567  81.6143 15.02536216 60749
STARLINK-31000          
1 58488U 23186R   25001.92473969  .00001067  00000+0  94062-4 0  9998
2 58488  43.0010 253.4778 0001127 281.4591  78.6124 15.02533963 60810
STARLINK-30993          
1 58489U 23186S   25001.78845917 -.00005432  00000+0 -38748-3 0  9999
2 58489  43.0048 254.1713 0003343 278.2686  81.7777 15.02518618 60875
STARLINK-30978          
1 58490U 23186T   25001.71864543  .00003090  00000+0  24369-3 0  9990
2 58490  43.0043 254.5072 0001264 262.2466  97.8233 15.02543122 60865
STARLINK-30953          
1 58491U 23186U   25001.86789747  .00073652  00000+0  27552-2 0  9996
2 58491  42.9991 187.4946 0001470 274.6086  85.4598 15.26413319 61570
STARLINK-30986          
1 58492U 23186V   24366.44558412  .00001219  00000+0  10525-3 0  9990
2 58492  43.0001 261.2945 0001065 279.1929  80.8793 15.02537292 60678
STARLINK-30985          
1 58493U 23186W   25001.77179807  .00026330  00000+0  19544-2 0  9991
2 58493  43.0017 254.0454 0001518 257.5427 102.5245 15.02584502 60879
STARLINK-30981          
1 58494U 23186X   25001.70200065  .00003199  00000+0  25182-3 0  9990
2 58494  43.0013 254.3797 0001078 275.6963  84.3757 15.02533691 60863
STARLINK-31002          
1 58495U 23186Y   25001.43277217  .00027816  00000+0  20617-2 0  9993
2 58495  42.9999 255.8016 0001459 295.2837  64.7854 15.02614848 60994
2023-187A               
1 58496U 23187A   25001.89070670  .00011763  00000+0  14910-2 0  9992
2 58496  97.9705  82.7803 0013291  76.4973 283.7720 14.81836540 58373
MISRSAT-2               
1 58497U 23187B   25001.90938692  .00016962  00000+0  21956-2 0  9996
2 58497  97.9719  82.5087 0012837  76.3278 283.9363 14.80869406 58341
2023-187C               
1 58498U 23187C   25001.89065596  .00030330  00000+0  37854-2 0  9998
2 58498  97.9716  82.8089 0012479  76.3577 283.9025 14.82260252 58361
DOORY-SAT               
1 58500U 23188A   25001.86637106  .00017105  00000+0  23596-2 0  9995
2 58500  46.9834  11.7248 0009131  25.0075 335.1259 14.78074589 58318
2023-189A               
1 58502U 23189A   25001.97008434  .00026476  00000+0  10064-2 0  9993
2 58502  97.4591  13.4172 0012446 353.1476   6.9590 15.26696409 59978
2023-189B               
1 58503U 23189B   25001.90084095  .00079348  00000+0  22223-2 0  9990
2 58503  97.4524  15.5069 0010595 354.3330   5.7792 15.36270737 60110
2023-190A               
1 58505U 23190A   25001.86106951  .00000222  00000+0  38226-3 0  9991
2 58505  86.5064 156.4338 0001713 107.8883 252.2446 13.39501915 53562
STARLINK-31026          
1 58508U 23191A   25001.21730284 -.00000034  00000+0  12529-4 0  9997
2 58508  43.0004 296.9972 0000893 258.0951 101.9791 15.02544152 60376
STARLINK-31020          
1 58509U 23191B   25001.14762374 -.00000968  00000+0 -56624-4 0  9996
2 58509  43.0034 298.1904 0001351 262.8295  97.2393 15.02534514 60357
STARLINK-30989          
1 58510U 23191C   25001.49518096  .00002942  00000+0  23269-3 0  9996
2 58510  43.0021 294.7929 0001029 290.1232  69.9500 15.02542319 60450
STARLINK-30968          
1 58511U 23191D   25001.49185668  .00001016  00000+0  90279-4 0  9999
2 58511  42.9989 294.7660 0000585 278.2454  81.8322 15.02535792 60422
STARLINK-30982          
1 58512U 23191E   25001.48851953 -.00000691  00000+0 -36050-4 0  9993
2 58512  43.0062 294.7422 0001173 268.4352  91.6356 15.02553005 60428
STARLINK-30998          
1 58513U 23191F   25001.21928430  .00000488  00000+0  51218-4 0  9995
2 58513  43.0035 296.1561 0001331 275.1661  84.9029 15.02542521 60415
STARLINK-30983          
1 58514U 23191G   25001.84076056  .00007529  00000+0  57138-3 0  9992
2 58514  42.9999 292.2360 0001430 321.9686  38.1055 15.02564186 60134
STARLINK-31017          
1 58515U 23191H   25001.48900805  .00031250  00000+0  72556-3 0  9990
2 58515  42.9963 160.3155 0001919 307.4178  52.6504 15.41788575 61987
STARLINK-31028          
1 58516U 23191J   25001.21262350  .00000889  00000+0  80861-4 0  9991
2 58516  43.0052 296.1072 0000968 278.3834  81.6899 15.02537015 60383
STARLINK-31011          
1 58517U 23191K   25001.81424733  .00005239  00000+0  40243-3 0  9996
2 58517  42.9999 292.8812 0001220 242.9376 117.1342 15.02551568 60474
STARLINK-31021          
1 58518U 23191L   25001.49842618 -.00002213  00000+0 -14894-3 0  9991
2 58518  43.0039 293.9359 0001321 252.1861 107.8838 15.02506214 60434
STARLINK-31010          
1 58519U 23191M   25001.50172046  .00015014  00000+0  11236-2 0  9992
2 58519  43.0010 293.9290 0001614 273.0440  87.0218 15.02552636 60438
STARLINK-31003          
1 58520U 23191N   25001.20929198  .00003230  00000+0  25406-3 0  9991
2 58520  42.9998 296.0822 0000477 203.0582 157.0239 15.02538249 60383
STARLINK-31015          
1 58521U 23191P   25001.53836724  .00001453  00000+0  12265-3 0  9994
2 58521  43.0049 294.2583 0001675 269.5488  90.5162 15.02532014 60403
STARLINK-31023          
1 58522U 23191Q   25001.53502596  .00002853  00000+0  22620-3 0  9993
2 58522  43.0032 294.2274 0001068 260.4814  99.5908 15.02538342 60432
STARLINK-30932          
1 58523U 23191R   25001.53169648  .00025711  00000+0  19109-2 0  9996
2 58523  43.0003 294.2040 0000960 283.7459  76.3276 15.02546185 60384
STARLINK-30992          
1 58524U 23191S   25001.52836598  .00001732  00000+0  14321-3 0  9990
2 58524  43.0024 294.1778 0000536 296.0342  64.0445 15.02540811 60430
STARLINK-30948          
1 58525U 23191T   25001.79095190  .00011494  00000+0  86408-3 0  9996
2 58525  43.0042 292.7081 0002464 274.6905  85.3656 15.02554736 60476
STARLINK-31013          
1 58526U 23191U   25001.52170262  .00007345  00000+0  55841-3 0  9999
2 58526  43.0030 294.1250 0000884 282.1401  77.9342 15.02525880 60430
STARLINK-31001          
1 58527U 23191V   25001.83742272  .00000784  00000+0  73037-4 0  9998
2 58527  43.0044 292.1061 0000593 279.3500  80.7275 15.02578078 60488
STARLINK-31004          
1 58528U 23191W   25001.85077021  .00001828  00000+0  15032-3 0  9994
2 58528  43.0016 292.2929 0000712 279.4594  80.6168 15.02533951 60480
STARLINK-30988          
1 58529U 23191X   25001.84741958  .00009341  00000+0  70498-3 0  9996
2 58529  42.9978 292.2686 0000574 190.0472 170.0359 15.02570163 60487
STARLINK-31009          
1 58530U 23191Y   25001.84412119  .00001254  00000+0  10789-3 0  9994
2 58530  43.0052 292.2474 0002080 287.1635  72.8980 15.02540086 60505
STARLINK-31012          
1 58531U 23192A   25001.02293859  .00006821  00000+0  24221-3 0  9995
2 58531  53.1592 272.3309 0001051  90.8266 269.2855 15.30199697 59745
STARLINK-31035          
1 58532U 23192B   25001.75738327  .00141837  00000+0  36664-2 0  9990
2 58532  53.1588 266.9450 0005539 135.6646 224.4802 15.38102666 59880
STARLINK-31036          
1 58533U 23192C   24366.14334982  .00001136  00000+0  50476-4 0  9992
2 58533  53.1606 276.8226 0001092 252.6620 107.4261 15.30190309 59607
STARLINK-30936          
1 58534U 23192D   25001.44013046  .00134673  00000+0  39223-2 0  9996
2 58534  53.1583 269.9758 0003048 159.8414 200.2709 15.34428329 59819
STARLINK-31032          
1 58535U 23192E   25001.74455659  .00003236  00000+0  12131-3 0  9990
2 58535  53.1586 269.0105 0000986 107.7839 252.3269 15.30208164 59853
STARLINK-31037          
1 58536U 23192F   25001.03032079  .00000697  00000+0  35652-4 0  9992
2 58536  53.1591 272.3971 0001355  84.7752 275.3404 15.30201857 59743
STARLINK-31041          
1 58537U 23192G   25001.74771148  .00002302  00000+0  89784-4 0  9998
2 58537  53.1614 269.0308 0000224  91.2985 268.8042 15.30206284 59858
STARLINK-31014          
1 58538U 23192H   25001.43171916 -.00001467  00000+0 -37381-4 0  9991
2 58538  53.1599 270.6146 0003253  99.0987 261.0382 15.30182245 59809
STARLINK-31055          
1 58539U 23192J   25001.43486924  .00002486  00000+0  96029-4 0  9994
2 58539  53.1609 270.6289 0001641  85.1930 274.9258 15.30199092 59806
STARLINK-31019          
1 58540U 23192K   25001.75193512  .00007997  00000+0  28166-3 0  9997
2 58540  53.1587 269.0540 0000856  77.2338 282.8758 15.30218293 59859
STARLINK-31045          
1 58541U 23192L   24366.61575695 -.00002083  00000+0 -12624-3 0  9997
2 58541  53.1614 319.3093 0001106  93.4047 266.7070 15.04918445 59045
STARLINK-31030          
1 58542U 23192M   25001.76459700  .00012380  00000+0  42902-3 0  9990
2 58542  53.1571 269.1348 0001001  77.3844 282.7269 15.30230533 59854
